{
  "type": "FeatureCollection",
  "features": [
    {
      "type": "Feature",
      "properties": {
        "norad_id": 34540,
        "name": "IRIDIUM 33 DEB",
        "group": "iridium-33-debris",
        "lat": -26.887636144653477,
        "lon": -55.870073844081666,
        "alt_km": 661.5557060549972,
        "timestamp": "2025-12-16T05:49:09.598697+00:00",
        "meta_object_name": "IRIDIUM 33 DEB",
        "meta_object_id": "1997-051JH",
        "meta_epoch": "2025-12-15T20:18:20.359008",
        "meta_mean_motion": 14.75390185,
        "meta_eccentricity": 0.00169148,
        "meta_inclination": 86.3098,
        "meta_ra_of_asc_node": 306.1865,
        "meta_arg_of_pericenter": 148.3055,
        "meta_mean_anomaly": 240.7997,
        "meta_ephemeris_type": 0,
        "meta_classification_type": "U",
        "meta_norad_cat_id": 34540,
        "meta_element_set_no": 999,
        "meta_rev_at_epoch": 89067,
        "meta_bstar": 0.0010372753,
        "meta_mean_motion_dot": 7.08e-05,
        "meta_mean_motion_ddot": 0,
        "tle_line1": "1 34540U 97051JH  25349.84606897  .00007080  00000+0  10373-2 0  9999",
        "tle_line2": "2 34540  86.3098 306.1865 0016914 148.3055 240.7997 14.75390185890679"
      },
      "geometry": {
        "type": "Point",
        "coordinates": [
          -55.870073844081666,
          -26.887636144653477
        ]
      }
    },
    {
      "type": "Feature",
      "properties": {
        "norad_id": 34648,
        "name": "IRIDIUM 33 DEB",
        "group": "iridium-33-debris",
        "lat": 38.38673348890452,
        "lon": -76.60097675500671,
        "alt_km": 895.2977257137627,
        "timestamp": "2025-12-16T05:49:09.598708+00:00",
        "meta_object_name": "IRIDIUM 33 DEB",
        "meta_object_id": "1997-051JZ",
        "meta_epoch": "2025-12-15T19:25:48.558720",
        "meta_mean_motion": 14.11597133,
        "meta_eccentricity": 0.01818536,
        "meta_inclination": 86.3893,
        "meta_ra_of_asc_node": 280.7066,
        "meta_arg_of_pericenter": 289.305,
        "meta_mean_anomaly": 68.8545,
        "meta_ephemeris_type": 0,
        "meta_classification_type": "U",
        "meta_norad_cat_id": 34648,
        "meta_element_set_no": 999,
        "meta_rev_at_epoch": 85004,
        "meta_bstar": 0.0045448615,
        "meta_mean_motion_dot": 9.665e-05,
        "meta_mean_motion_ddot": 0,
        "tle_line1": "1 34648U 97051JZ  25349.80958980  .00009665  00000+0  45449-2 0  9990",
        "tle_line2": "2 34648  86.3893 280.7066 0181853 289.3050  68.8545 14.11597133850044"
      },
      "geometry": {
        "type": "Point",
        "coordinates": [
          -76.60097675500671,
          38.38673348890452
        ]
      }
    },
    {
      "type": "Feature",
      "properties": {
        "norad_id": 34651,
        "name": "IRIDIUM 33 DEB",
        "group": "iridium-33-debris",
        "lat": -83.08580058057593,
        "lon": 106.66660182334635,
        "alt_km": 799.146052782563,
        "timestamp": "2025-12-16T05:49:09.598717+00:00",
        "meta_object_name": "IRIDIUM 33 DEB",
        "meta_object_id": "1997-051KC",
        "meta_epoch": "2025-12-15T16:44:43.264608",
        "meta_mean_motion": 14.2586969,
        "meta_eccentricity": 0.01422111,
        "meta_inclination": 86.2826,
        "meta_ra_of_asc_node": 139.319,
        "meta_arg_of_pericenter": 194.5813,
        "meta_mean_anomaly": 165.1258,
        "meta_ephemeris_type": 0,
        "meta_classification_type": "U",
        "meta_norad_cat_id": 34651,
        "meta_element_set_no": 999,
        "meta_rev_at_epoch": 85938,
        "meta_bstar": 0.0022485877,
        "meta_mean_motion_dot": 5.97e-05,
        "meta_mean_motion_ddot": 0,
        "tle_line1": "1 34651U 97051KC  25349.69772297  .00005970  00000+0  22486-2 0  9997",
        "tle_line2": "2 34651  86.2826 139.3190 0142211 194.5813 165.1258 14.25869690859382"
      },
      "geometry": {
        "type": "Point",
        "coordinates": [
          106.66660182334635,
          -83.08580058057593
        ]
      }
    },
    {
      "type": "Feature",
      "properties": {
        "norad_id": 34652,
        "name": "IRIDIUM 33 DEB",
        "group": "iridium-33-debris",
        "lat": 61.3977352406476,
        "lon": -14.80015208586221,
        "alt_km": 693.6228513446185,
        "timestamp": "2025-12-16T05:49:09.598728+00:00",
        "meta_object_name": "IRIDIUM 33 DEB",
        "meta_object_id": "1997-051KD",
        "meta_epoch": "2025-12-15T23:06:17.407008",
        "meta_mean_motion": 14.62091259,
        "meta_eccentricity": 0.00256988,
        "meta_inclination": 86.3313,
        "meta_ra_of_asc_node": 338.5668,
        "meta_arg_of_pericenter": 286.4484,
        "meta_mean_anomaly": 103.3861,
        "meta_ephemeris_type": 0,
        "meta_classification_type": "U",
        "meta_norad_cat_id": 34652,
        "meta_element_set_no": 999,
        "meta_rev_at_epoch": 88531,
        "meta_bstar": 0.00069351395,
        "meta_mean_motion_dot": 3.52e-05,
        "meta_mean_motion_ddot": 0,
        "tle_line1": "1 34652U 97051KD  25349.96270147  .00003520  00000+0  69351-3 0  9997",
        "tle_line2": "2 34652  86.3313 338.5668 0025698 286.4484 103.3861 14.62091259885317"
      },
      "geometry": {
        "type": "Point",
        "coordinates": [
          -14.80015208586221,
          61.3977352406476
        ]
      }
    },
    {
      "type": "Feature",
      "properties": {
        "norad_id": 34690,
        "name": "IRIDIUM 33 DEB",
        "group": "iridium-33-debris",
        "lat": -16.579044231787652,
        "lon": -143.4501989027784,
        "alt_km": 721.3886360519036,
        "timestamp": "2025-12-16T05:49:09.598738+00:00",
        "meta_object_name": "IRIDIUM 33 DEB",
        "meta_object_id": "1997-051KM",
        "meta_epoch": "2025-12-15T21:29:19.372704",
        "meta_mean_motion": 14.55108045,
        "meta_eccentricity": 0.00104656,
        "meta_inclination": 86.3784,
        "meta_ra_of_asc_node": 35.6202,
        "meta_arg_of_pericenter": 19.3617,
        "meta_mean_anomaly": 160.0071,
        "meta_ephemeris_type": 0,
        "meta_classification_type": "U",
        "meta_norad_cat_id": 34690,
        "meta_element_set_no": 999,
        "meta_rev_at_epoch": 88140,
        "meta_bstar": 0.0003293716,
        "meta_mean_motion_dot": 1.443e-05,
        "meta_mean_motion_ddot": 0,
        "tle_line1": "1 34690U 97051KM  25349.89536311  .00001443  00000+0  32937-3 0  9991",
        "tle_line2": "2 34690  86.3784  35.6202 0010465  19.3617 160.0071 14.55108045881400"
      },
      "geometry": {
        "type": "Point",
        "coordinates": [
          -143.4501989027784,
          -16.579044231787652
        ]
      }
    },
    {
      "type": "Feature",
      "properties": {
        "norad_id": 34693,
        "name": "IRIDIUM 33 DEB",
        "group": "iridium-33-debris",
        "lat": 85.65826966432152,
        "lon": 0.45253515193409083,
        "alt_km": 465.33557126616415,
        "timestamp": "2025-12-16T05:49:09.598748+00:00",
        "meta_object_name": "IRIDIUM 33 DEB",
        "meta_object_id": "1997-051KQ",
        "meta_epoch": "2025-12-15T21:49:54.444288",
        "meta_mean_motion": 15.28720084,
        "meta_eccentricity": 0.00128903,
        "meta_inclination": 86.3039,
        "meta_ra_of_asc_node": 302.2489,
        "meta_arg_of_pericenter": 47.6985,
        "meta_mean_anomaly": 9.5457,
        "meta_ephemeris_type": 0,
        "meta_classification_type": "U",
        "meta_norad_cat_id": 34693,
        "meta_element_set_no": 999,
        "meta_rev_at_epoch": 88963,
        "meta_bstar": 0.0034812726,
        "meta_mean_motion_dot": 0.00098516,
        "meta_mean_motion_ddot": 0,
        "tle_line1": "1 34693U 97051KQ  25349.90965792  .00098516  00000+0  34813-2 0  9996",
        "tle_line2": "2 34693  86.3039 302.2489 0012890  47.6985   9.5457 15.28720084889634"
      },
      "geometry": {
        "type": "Point",
        "coordinates": [
          0.45253515193409083,
          85.65826966432152
        ]
      }
    },
    {
      "type": "Feature",
      "properties": {
        "norad_id": 34696,
        "name": "IRIDIUM 33 DEB",
        "group": "iridium-33-debris",
        "lat": 77.80932305286333,
        "lon": -172.0959915637466,
        "alt_km": 638.1572102626988,
        "timestamp": "2025-12-16T05:49:09.598758+00:00",
        "meta_object_name": "IRIDIUM 33 DEB",
        "meta_object_id": "1997-051KT",
        "meta_epoch": "2025-12-15T13:39:18.734112",
        "meta_mean_motion": 14.65257205,
        "meta_eccentricity": 0.00738903,
        "meta_inclination": 86.1854,
        "meta_ra_of_asc_node": 26.2064,
        "meta_arg_of_pericenter": 157.9484,
        "meta_mean_anomaly": 353.8897,
        "meta_ephemeris_type": 0,
        "meta_classification_type": "U",
        "meta_norad_cat_id": 34696,
        "meta_element_set_no": 999,
        "meta_rev_at_epoch": 86714,
        "meta_bstar": 0.0025836599,
        "meta_mean_motion_dot": 0.00014532,
        "meta_mean_motion_ddot": 0,
        "tle_line1": "1 34696U 97051KT  25349.56896683  .00014532  00000+0  25837-2 0  9995",
        "tle_line2": "2 34696  86.1854  26.2064 0073890 157.9484 353.8897 14.65257205867143"
      },
      "geometry": {
        "type": "Point",
        "coordinates": [
          -172.0959915637466,
          77.80932305286333
        ]
      }
    }
  ]
}